[{"OBJECT_NAME":"EUTELSAT 7 WEST A","OBJECT_ID":"2011-051A","EPOCH":"2026-03-06T10:24:38.712096","MEAN_MOTION":1.00272194,"ECCENTRICITY":9.871e-5,"INCLINATION":0.07,"RA_OF_ASC_NODE":12.7016,"ARG_OF_PERICENTER":225.6803,"MEAN_ANOMALY":74.6073,"EPHEMERIS_TYPE":0,"CLASSIFICATION_TYPE":"U","NORAD_CAT_ID":37816,"ELEMENT_SET_NO":999,"REV_AT_EPOCH":5284,"BSTAR":0,"MEAN_MOTION_DOT":-6.5e-7,"MEAN_MOTION_DDOT":0},{"OBJECT_NAME":"QUETZSAT 1","OBJECT_ID":"2011-054A","EPOCH":"2026-03-06T13:35:29.100192","MEAN_MOTION":1.00280367,"ECCENTRICITY":0.00028468,"INCLINATION":0.0489,"RA_OF_ASC_NODE":292.9234,"ARG_OF_PERICENTER":66.9972,"MEAN_ANOMALY":291.2306,"EPHEMERIS_TYPE":0,"CLASSIFICATION_TYPE":"U","NORAD_CAT_ID":37826,"ELEMENT_SET_NO":999,"REV_AT_EPOCH":4884,"BSTAR":0,"MEAN_MOTION_DOT":-2.46e-6,"MEAN_MOTION_DDOT":0},{"OBJECT_NAME":"INTELSAT 18 (IS-18)","OBJECT_ID":"2011-056A","EPOCH":"2026-03-06T18:14:09.877920","MEAN_MOTION":1.00274571,"ECCENTRICITY":0.0001915,"INCLINATION":0.0363,"RA_OF_ASC_NODE":264.239,"ARG_OF_PERICENTER":81.2133,"MEAN_ANOMALY":272.5553,"EPHEMERIS_TYPE":0,"CLASSIFICATION_TYPE":"U","NORAD_CAT_ID":37834,"ELEMENT_SET_NO":999,"REV_AT_EPOCH":5278,"BSTAR":0,"MEAN_MOTION_DOT":5.0e-7,"MEAN_MOTION_DDOT":0},{"OBJECT_NAME":"EUTELSAT 16A","OBJECT_ID":"2011-057A","EPOCH":"2026-03-06T19:10:04.516032","MEAN_MOTION":1.0027252,"ECCENTRICITY":0.0005476,"INCLINATION":0.0559,"RA_OF_ASC_NODE":358.5523,"ARG_OF_PERICENTER":349.168,"MEAN_ANOMALY":120.2957,"EPHEMERIS_TYPE":0,"CLASSIFICATION_TYPE":"U","NORAD_CAT_ID":37836,"ELEMENT_SET_NO":999,"REV_AT_EPOCH":631,"BSTAR":0,"MEAN_MOTION_DOT":1.01e-6,"MEAN_MOTION_DDOT":0},{"OBJECT_NAME":"VIASAT-1","OBJECT_ID":"2011-059A","EPOCH":"2026-03-06T13:24:37.639872","MEAN_MOTION":1.00271965,"ECCENTRICITY":0.00021416,"INCLINATION":0.0195,"RA_OF_ASC_NODE":188.3082,"ARG_OF_PERICENTER":162.1343,"MEAN_ANOMALY":259.8684,"EPHEMERIS_TYPE":0,"CLASSIFICATION_TYPE":"U","NORAD_CAT_ID":37843,"ELEMENT_SET_NO":999,"REV_AT_EPOCH":4629,"BSTAR":0,"MEAN_MOTION_DOT":-2.7e-7,"MEAN_MOTION_DDOT":0},{"OBJECT_NAME":"ASIASAT 7","OBJECT_ID":"2011-069A","EPOCH":"2026-03-06T19:35:39.564096","MEAN_MOTION":1.00274713,"ECCENTRICITY":0.0001228,"INCLINATION":0.0083,"RA_OF_ASC_NODE":169.2305,"ARG_OF_PERICENTER":165.0865,"MEAN_ANOMALY":229.6092,"EPHEMERIS_TYPE":0,"CLASSIFICATION_TYPE":"U","NORAD_CAT_ID":37933,"ELEMENT_SET_NO":999,"REV_AT_EPOCH":4383,"BSTAR":0,"MEAN_MOTION_DOT":-3.37e-6,"MEAN_MOTION_DDOT":0},{"OBJECT_NAME":"BEIDOU-2 IGSO-5","OBJECT_ID":"2011-073A","EPOCH":"2026-03-04T13:08:52.662336","MEAN_MOTION":1.00272598,"ECCENTRICITY":0.01085888,"INCLINATION":47.8676,"RA_OF_ASC_NODE":272.8369,"ARG_OF_PERICENTER":221.1171,"MEAN_ANOMALY":320.721,"EPHEMERIS_TYPE":0,"CLASSIFICATION_TYPE":"U","NORAD_CAT_ID":37948,"ELEMENT_SET_NO":999,"REV_AT_EPOCH":5208,"BSTAR":0,"MEAN_MOTION_DOT":-1.53e-6,"MEAN_MOTION_DDOT":0},{"OBJECT_NAME":"LUCH-5A","OBJECT_ID":"2011-074B","EPOCH":"2026-03-06T19:53:07.888992","MEAN_MOTION":1.00276045,"ECCENTRICITY":0.0003865,"INCLINATION":8.4932,"RA_OF_ASC_NODE":75.3103,"ARG_OF_PERICENTER":248.4746,"MEAN_ANOMALY":306.1672,"EPHEMERIS_TYPE":0,"CLASSIFICATION_TYPE":"U","NORAD_CAT_ID":37951,"ELEMENT_SET_NO":999,"REV_AT_EPOCH":5202,"BSTAR":0,"MEAN_MOTION_DOT":-4.9e-7,"MEAN_MOTION_DDOT":0},{"OBJECT_NAME":"NIGCOMSAT 1R","OBJECT_ID":"2011-077A","EPOCH":"2026-03-06T19:17:41.286048","MEAN_MOTION":1.00268718,"ECCENTRICITY":0.0002816,"INCLINATION":0.0612,"RA_OF_ASC_NODE":250.8796,"ARG_OF_PERICENTER":70.0099,"MEAN_ANOMALY":175.5715,"EPHEMERIS_TYPE":0,"CLASSIFICATION_TYPE":"U","NORAD_CAT_ID":38014,"ELEMENT_SET_NO":999,"REV_AT_EPOCH":5193,"BSTAR":0,"MEAN_MOTION_DOT":1.42e-6,"MEAN_MOTION_DDOT":0},{"OBJECT_NAME":"WGS F4 (USA 233)","OBJECT_ID":"2012-003A","EPOCH":"2026-03-06T19:30:47.530368","MEAN_MOTION":1.00273723,"ECCENTRICITY":5.54e-5,"INCLINATION":0.0096,"RA_OF_ASC_NODE":156.3997,"ARG_OF_PERICENTER":127.9368,"MEAN_ANOMALY":261.2585,"EPHEMERIS_TYPE":0,"CLASSIFICATION_TYPE":"U","NORAD_CAT_ID":38070,"ELEMENT_SET_NO":999,"REV_AT_EPOCH":4312,"BSTAR":0,"MEAN_MOTION_DOT":-2.18e-6,"MEAN_MOTION_DDOT":0},{"OBJECT_NAME":"SES-4","OBJECT_ID":"2012-007A","EPOCH":"2026-03-06T10:32:38.658048","MEAN_MOTION":1.00270086,"ECCENTRICITY":0.00021933,"INCLINATION":0.0353,"RA_OF_ASC_NODE":65.8553,"ARG_OF_PERICENTER":272.1207,"MEAN_ANOMALY":322.3456,"EPHEMERIS_TYPE":0,"CLASSIFICATION_TYPE":"U","NORAD_CAT_ID":38087,"ELEMENT_SET_NO":999,"REV_AT_EPOCH":5119,"BSTAR":0,"MEAN_MOTION_DOT":-1.73e-6,"MEAN_MOTION_DDOT":0},{"OBJECT_NAME":"BEIDOU-2 G5","OBJECT_ID":"2012-008A","EPOCH":"2026-03-06T21:04:59.134944","MEAN_MOTION":1.00272389,"ECCENTRICITY":0.0014143,"INCLINATION":3.3183,"RA_OF_ASC_NODE":70.3001,"ARG_OF_PERICENTER":255.579,"MEAN_ANOMALY":213.7869,"EPHEMERIS_TYPE":0,"CLASSIFICATION_TYPE":"U","NORAD_CAT_ID":38091,"ELEMENT_SET_NO":999,"REV_AT_EPOCH":5134,"BSTAR":0,"MEAN_MOTION_DOT":5.4e-7,"MEAN_MOTION_DDOT":0},{"OBJECT_NAME":"MUOS-1","OBJECT_ID":"2012-009A","EPOCH":"2026-03-06T13:28:44.745600","MEAN_MOTION":1.00273584,"ECCENTRICITY":0.00572422,"INCLINATION":5.2657,"RA_OF_ASC_NODE":47.1935,"ARG_OF_PERICENTER":357.8122,"MEAN_ANOMALY":221.4504,"EPHEMERIS_TYPE":0,"CLASSIFICATION_TYPE":"U","NORAD_CAT_ID":38093,"ELEMENT_SET_NO":999,"REV_AT_EPOCH":5141,"BSTAR":0,"MEAN_MOTION_DOT":-1.3e-6,"MEAN_MOTION_DDOT":0},{"OBJECT_NAME":"INTELSAT 22 (IS-22)","OBJECT_ID":"2012-011A","EPOCH":"2026-03-06T14:18:02.519136","MEAN_MOTION":1.00271339,"ECCENTRICITY":0.00016616,"INCLINATION":0.0064,"RA_OF_ASC_NODE":156.1408,"ARG_OF_PERICENTER":209.4389,"MEAN_ANOMALY":85.3453,"EPHEMERIS_TYPE":0,"CLASSIFICATION_TYPE":"U","NORAD_CAT_ID":38098,"ELEMENT_SET_NO":999,"REV_AT_EPOCH":615,"BSTAR":0,"MEAN_MOTION_DOT":-6.2e-7,"MEAN_MOTION_DDOT":0},{"OBJECT_NAME":"APSTAR-7","OBJECT_ID":"2012-013A","EPOCH":"2026-03-06T17:45:38.749248","MEAN_MOTION":1.00271914,"ECCENTRICITY":0.0002389,"INCLINATION":0.0089,"RA_OF_ASC_NODE":165.129,"ARG_OF_PERICENTER":183.6339,"MEAN_ANOMALY":158.5875,"EPHEMERIS_TYPE":0,"CLASSIFICATION_TYPE":"U","NORAD_CAT_ID":38107,"ELEMENT_SET_NO":999,"REV_AT_EPOCH":5078,"BSTAR":0,"MEAN_MOTION_DOT":-1.05e-6,"MEAN_MOTION_DDOT":0},{"OBJECT_NAME":"YAHSAT 1B","OBJECT_ID":"2012-016A","EPOCH":"2026-03-06T10:45:38.552832","MEAN_MOTION":1.0027384,"ECCENTRICITY":0.00032608,"INCLINATION":0.0885,"RA_OF_ASC_NODE":91.6403,"ARG_OF_PERICENTER":260.3305,"MEAN_ANOMALY":21.2016,"EPHEMERIS_TYPE":0,"CLASSIFICATION_TYPE":"U","NORAD_CAT_ID":38245,"ELEMENT_SET_NO":999,"REV_AT_EPOCH":4457,"BSTAR":0,"MEAN_MOTION_DOT":1.22e-6,"MEAN_MOTION_DDOT":0},{"OBJECT_NAME":"AEHF-2 (USA 235)","OBJECT_ID":"2012-019A","EPOCH":"2026-03-06T19:00:50.402592","MEAN_MOTION":1.00273233,"ECCENTRICITY":0.0003141,"INCLINATION":6.4128,"RA_OF_ASC_NODE":58.2304,"ARG_OF_PERICENTER":277.3566,"MEAN_ANOMALY":97.6324,"EPHEMERIS_TYPE":0,"CLASSIFICATION_TYPE":"U","NORAD_CAT_ID":38254,"ELEMENT_SET_NO":999,"REV_AT_EPOCH":596,"BSTAR":0,"MEAN_MOTION_DOT":-1.37e-6,"MEAN_MOTION_DDOT":0}]
